{
  "type": "FeatureCollection",
  "features": [
    {
      "type": "Feature",
      "properties": {
        "norad_id": 66877,
        "name": "ZQ-3 R/B",
        "group": "last-30-days",
        "lat": -56.58695291357413,
        "lon": -60.255277171718625,
        "alt_km": 237.83364039354274,
        "timestamp": "2025-12-17T13:48:36.281039+00:00",
        "meta_object_name": "ZQ-3 R/B",
        "meta_object_id": "2025-282A",
        "meta_epoch": "2025-12-17T07:42:07.579584",
        "meta_mean_motion": 14.68930288,
        "meta_eccentricity": 0.07398954,
        "meta_inclination": 56.9505,
        "meta_ra_of_asc_node": 40.0113,
        "meta_arg_of_pericenter": 227.9505,
        "meta_mean_anomaly": 125.6259,
        "meta_ephemeris_type": 0,
        "meta_classification_type": "U",
        "meta_norad_cat_id": 66877,
        "meta_element_set_no": 999,
        "meta_rev_at_epoch": 206,
        "meta_bstar": 0.00019424049,
        "meta_mean_motion_dot": 0.01030255,
        "meta_mean_motion_ddot": 7.645753e-06,
        "tle_line1": "1 66877U 25282A   25351.32092106  .01030255  76458-5  19424-3 0  9996",
        "tle_line2": "2 66877  56.9505  40.0113 0739895 227.9505 125.6259 14.68930288  2063"
      },
      "geometry": {
        "type": "Point",
        "coordinates": [
          -60.255277171718625,
          -56.58695291357413
        ]
      }
    },
    {
      "type": "Feature",
      "properties": {
        "norad_id": 66878,
        "name": "STARLINK-35866",
        "group": "last-30-days",
        "lat": 32.03006375322049,
        "lon": -158.4772230414435,
        "alt_km": 320.17112326401457,
        "timestamp": "2025-12-17T13:48:36.281049+00:00",
        "meta_object_name": "STARLINK-35866",
        "meta_object_id": "2025-283A",
        "meta_epoch": "2025-12-17T06:00:00.999648",
        "meta_mean_motion": 15.82974039,
        "meta_eccentricity": 0.00010395,
        "meta_inclination": 53.156,
        "meta_ra_of_asc_node": 51.1343,
        "meta_arg_of_pericenter": 73.8135,
        "meta_mean_anomaly": 9.6166,
        "meta_ephemeris_type": 0,
        "meta_classification_type": "U",
        "meta_norad_cat_id": 66878,
        "meta_element_set_no": 999,
        "meta_rev_at_epoch": 315,
        "meta_bstar": -0.0064388154,
        "meta_mean_motion_dot": -0.01242268,
        "meta_mean_motion_ddot": 0,
        "tle_line1": "1 66878U 25283A   25351.25001157 -.01242268  00000+0 -64388-2 0  9999",
        "tle_line2": "2 66878  53.1560  51.1343 0001039  73.8135   9.6166 15.82974039  3159"
      },
      "geometry": {
        "type": "Point",
        "coordinates": [
          -158.4772230414435,
          32.03006375322049
        ]
      }
    },
    {
      "type": "Feature",
      "properties": {
        "norad_id": 66879,
        "name": "STARLINK-35749",
        "group": "last-30-days",
        "lat": 28.371882826276618,
        "lon": -154.40116389868447,
        "alt_km": 320.985675707906,
        "timestamp": "2025-12-17T13:48:36.281059+00:00",
        "meta_object_name": "STARLINK-35749",
        "meta_object_id": "2025-283B",
        "meta_epoch": "2025-12-17T06:00:00.999648",
        "meta_mean_motion": 15.82943741,
        "meta_eccentricity": 9.434e-05,
        "meta_inclination": 53.1557,
        "meta_ra_of_asc_node": 51.1234,
        "meta_arg_of_pericenter": 78.4037,
        "meta_mean_anomaly": 10.1464,
        "meta_ephemeris_type": 0,
        "meta_classification_type": "U",
        "meta_norad_cat_id": 66879,
        "meta_element_set_no": 999,
        "meta_rev_at_epoch": 315,
        "meta_bstar": -0.0065228734,
        "meta_mean_motion_dot": -0.01254946,
        "meta_mean_motion_ddot": 0,
        "tle_line1": "1 66879U 25283B   25351.25001157 -.01254946  00000+0 -65229-2 0  9991",
        "tle_line2": "2 66879  53.1557  51.1234 0000943  78.4037  10.1464 15.82943741  3154"
      },
      "geometry": {
        "type": "Point",
        "coordinates": [
          -154.40116389868447,
          28.371882826276618
        ]
      }
    },
    {
      "type": "Feature",
      "properties": {
        "norad_id": 66880,
        "name": "STARLINK-35844",
        "group": "last-30-days",
        "lat": 30.287622923242733,
        "lon": -156.4794317449722,
        "alt_km": 320.52714785473836,
        "timestamp": "2025-12-17T13:48:36.281069+00:00",
        "meta_object_name": "STARLINK-35844",
        "meta_object_id": "2025-283C",
        "meta_epoch": "2025-12-17T06:00:00.999648",
        "meta_mean_motion": 15.82966467,
        "meta_eccentricity": 9.831e-05,
        "meta_inclination": 53.1561,
        "meta_ra_of_asc_node": 51.1295,
        "meta_arg_of_pericenter": 80.676,
        "meta_mean_anomaly": 5.2075,
        "meta_ephemeris_type": 0,
        "meta_classification_type": "U",
        "meta_norad_cat_id": 66880,
        "meta_element_set_no": 999,
        "meta_rev_at_epoch": 315,
        "meta_bstar": -0.0064825807,
        "meta_mean_motion_dot": -0.01249306,
        "meta_mean_motion_ddot": 0,
        "tle_line1": "1 66880U 25283C   25351.25001157 -.01249306  00000+0 -64826-2 0  9999",
        "tle_line2": "2 66880  53.1561  51.1295 0000983  80.6760   5.2075 15.82966467  3153"
      },
      "geometry": {
        "type": "Point",
        "coordinates": [
          -156.4794317449722,
          30.287622923242733
        ]
      }
    },
    {
      "type": "Feature",
      "properties": {
        "norad_id": 66881,
        "name": "STARLINK-35860",
        "group": "last-30-days",
        "lat": 26.760282854739398,
        "lon": -152.73454330195932,
        "alt_km": 321.24872637517274,
        "timestamp": "2025-12-17T13:48:36.281081+00:00",
        "meta_object_name": "STARLINK-35860",
        "meta_object_id": "2025-283D",
        "meta_epoch": "2025-12-17T06:00:00.999648",
        "meta_mean_motion": 15.82946081,
        "meta_eccentricity": 0.00011009,
        "meta_inclination": 53.1557,
        "meta_ra_of_asc_node": 51.1185,
        "meta_arg_of_pericenter": 70.9657,
        "meta_mean_anomaly": 19.7703,
        "meta_ephemeris_type": 0,
        "meta_classification_type": "U",
        "meta_norad_cat_id": 66881,
        "meta_element_set_no": 999,
        "meta_rev_at_epoch": 315,
        "meta_bstar": -0.0065662636,
        "meta_mean_motion_dot": -0.01262534,
        "meta_mean_motion_ddot": 0,
        "tle_line1": "1 66881U 25283D   25351.25001157 -.01262534  00000+0 -65663-2 0  9998",
        "tle_line2": "2 66881  53.1557  51.1185 0001100  70.9657  19.7703 15.82946081  3154"
      },
      "geometry": {
        "type": "Point",
        "coordinates": [
          -152.73454330195932,
          26.760282854739398
        ]
      }
    },
    {
      "type": "Feature",
      "properties": {
        "norad_id": 66882,
        "name": "STARLINK-35912",
        "group": "last-30-days",
        "lat": 24.963391853225655,
        "lon": -150.95193560679968,
        "alt_km": 321.6014525503233,
        "timestamp": "2025-12-17T13:48:36.281093+00:00",
        "meta_object_name": "STARLINK-35912",
        "meta_object_id": "2025-283E",
        "meta_epoch": "2025-12-17T06:00:00.999648",
        "meta_mean_motion": 15.82945791,
        "meta_eccentricity": 0.00011592,
        "meta_inclination": 53.156,
        "meta_ra_of_asc_node": 51.1142,
        "meta_arg_of_pericenter": 71.5287,
        "meta_mean_anomaly": 21.6256,
        "meta_ephemeris_type": 0,
        "meta_classification_type": "U",
        "meta_norad_cat_id": 66882,
        "meta_element_set_no": 999,
        "meta_rev_at_epoch": 315,
        "meta_bstar": -0.0066913472,
        "meta_mean_motion_dot": -0.01283742,
        "meta_mean_motion_ddot": 0,
        "tle_line1": "1 66882U 25283E   25351.25001157 -.01283742  00000+0 -66913-2 0  9992",
        "tle_line2": "2 66882  53.1560  51.1142 0001159  71.5287  21.6256 15.82945791  3154"
      },
      "geometry": {
        "type": "Point",
        "coordinates": [
          -150.95193560679968,
          24.963391853225655
        ]
      }
    },
    {
      "type": "Feature",
      "properties": {
        "norad_id": 66883,
        "name": "STARLINK-35947",
        "group": "last-30-days",
        "lat": 23.054044969217237,
        "lon": -149.13643713685653,
        "alt_km": 321.96719196036884,
        "timestamp": "2025-12-17T13:48:36.281102+00:00",
        "meta_object_name": "STARLINK-35947",
        "meta_object_id": "2025-283F",
        "meta_epoch": "2025-12-17T06:00:00.999648",
        "meta_mean_motion": 15.82942249,
        "meta_eccentricity": 0.00010415,
        "meta_inclination": 53.1559,
        "meta_ra_of_asc_node": 51.109,
        "meta_arg_of_pericenter": 79.2993,
        "meta_mean_anomaly": 16.4063,
        "meta_ephemeris_type": 0,
        "meta_classification_type": "U",
        "meta_norad_cat_id": 66883,
        "meta_element_set_no": 999,
        "meta_rev_at_epoch": 320,
        "meta_bstar": -0.0068911723,
        "meta_mean_motion_dot": -0.01317111,
        "meta_mean_motion_ddot": 0,
        "tle_line1": "1 66883U 25283F   25351.25001157 -.01317111  00000+0 -68912-2 0  9992",
        "tle_line2": "2 66883  53.1559  51.1090 0001041  79.2993  16.4063 15.82942249  3203"
      },
      "geometry": {
        "type": "Point",
        "coordinates": [
          -149.13643713685653,
          23.054044969217237
        ]
      }
    }
  ]
}